[{"OBJECT_NAME":"WILDFIRE 1","OBJECT_ID":"2023-133H","EPOCH":"2026-03-09T14:37:46.070400","MEAN_MOTION":13.8571565,"ECCENTRICITY":0.0005359,"INCLINATION":80.9966,"RA_OF_ASC_NODE":102.6376,"ARG_OF_PERICENTER":268.5807,"MEAN_ANOMALY":91.4735,"EPHEMERIS_TYPE":0,"CLASSIFICATION_TYPE":"U","NORAD_CAT_ID":57764,"ELEMENT_SET_NO":999,"REV_AT_EPOCH":12726,"BSTAR":9.768e-5,"MEAN_MOTION_DOT":1.23e-6,"MEAN_MOTION_DDOT":0},{"OBJECT_NAME":"COSMOS 1275 DEB","OBJECT_ID":"1981-053AV","EPOCH":"2026-03-09T18:52:19.888320","MEAN_MOTION":13.92726256,"ECCENTRICITY":0.00385417,"INCLINATION":82.8525,"RA_OF_ASC_NODE":351.0791,"ARG_OF_PERICENTER":297.6243,"MEAN_ANOMALY":125.7748,"EPHEMERIS_TYPE":0,"CLASSIFICATION_TYPE":"U","NORAD_CAT_ID":12701,"ELEMENT_SET_NO":999,"REV_AT_EPOCH":25049,"BSTAR":0.00075905857,"MEAN_MOTION_DOT":1.002e-5,"MEAN_MOTION_DDOT":0}]
